[
    {
        "object_name": "COSMOS 1408 DEB",
        "tle_line1": "1 50032U 82092RU  26086.87340991  .00004969  00000+0  97360-4 0  9990",
        "tle_line2": "2 50032  82.5627 310.6510 0015135 185.1591 174.9506 15.46960456242289",
        "catalog_number": "50032"
    },
    {
        "object_name": "COSMOS 1408 DEB",
        "tle_line1": "1 50058U 82092SW  26086.64844403  .00047140  00000+0  34302-3 0  9994",
        "tle_line2": "2 50058  82.6112 318.8486 0014193  67.0550 293.2210 15.72994115244484",
        "catalog_number": "50058"
    },
    {
        "object_name": "COSMOS 1408 DEB",
        "tle_line1": "1 50404U 82092ADS 26086.47490830  .00148681  00000+0  29821-2 0  9992",
        "tle_line2": "2 50404  82.1917 105.8081 0111902 191.4744 168.3950 15.39615377227909",
        "catalog_number": "50404"
    },
    {
        "object_name": "COSMOS 1408 DEB",
        "tle_line1": "1 50621U 82092ALR 26086.68427744  .00032505  00000+0  34251-3 0  9991",
        "tle_line2": "2 50621  82.5697 324.3689 0025199 119.6693 240.7080 15.63676798238865",
        "catalog_number": "50621"
    }
]